[{"OBJECT_NAME":"STARLINK-1676","OBJECT_ID":"2020-070AA","EPOCH":"2026-03-09T12:01:20.339904","MEAN_MOTION":15.5130648,"ECCENTRICITY":6.362e-5,"INCLINATION":53.0455,"RA_OF_ASC_NODE":145.9733,"ARG_OF_PERICENTER":52.0249,"MEAN_ANOMALY":308.0817,"EPHEMERIS_TYPE":0,"CLASSIFICATION_TYPE":"U","NORAD_CAT_ID":46556,"ELEMENT_SET_NO":999,"REV_AT_EPOCH":29992,"BSTAR":0.00087592208,"MEAN_MOTION_DOT":0.00052185,"MEAN_MOTION_DDOT":0},{"OBJECT_NAME":"STARLINK-1777","OBJECT_ID":"2020-088A","EPOCH":"2026-03-09T21:53:32.612064","MEAN_MOTION":15.51775072,"ECCENTRICITY":0.00015349,"INCLINATION":53.0539,"RA_OF_ASC_NODE":282.6272,"ARG_OF_PERICENTER":245.3461,"MEAN_ANOMALY":114.7388,"EPHEMERIS_TYPE":0,"CLASSIFICATION_TYPE":"U","NORAD_CAT_ID":47122,"ELEMENT_SET_NO":999,"REV_AT_EPOCH":29212,"BSTAR":0.0018721438,"MEAN_MOTION_DOT":0.00114877,"MEAN_MOTION_DDOT":0}]
